CCSDS_OMM_VERS = 2.0
CREATION_DATE  = 
ORIGINATOR     = 

OBJECT_NAME    = CZ-2C R/B
OBJECT_ID      = 2022-132E
CENTER_NAME    = EARTH
REF_FRAME      = TEME
TIME_SYSTEM    = UTC
MEAN_ELEMENT_THEORY = SGP/SGP4

EPOCH          = 2026-02-26T12:57:34.418016
MEAN_MOTION    = 15.60760812
ECCENTRICITY   = .0020586
INCLINATION    = 97.2967
RA_OF_ASC_NODE = 60.5283
ARG_OF_PERICENTER = 126.9278
MEAN_ANOMALY   = 233.3869

EPHEMERIS_TYPE = 0
CLASSIFICATION_TYPE = U
NORAD_CAT_ID   = 54039
ELEMENT_SET_NO = 999
REV_AT_EPOCH   = 18863
BSTAR          = .52466E-3
MEAN_MOTION_DOT = .44122E-3
MEAN_MOTION_DDOT = 0

CCSDS_OMM_VERS = 2.0
CREATION_DATE  = 
ORIGINATOR     = 

OBJECT_NAME    = GSLV R/B
OBJECT_ID      = 2022-138AN
CENTER_NAME    = EARTH
REF_FRAME      = TEME
TIME_SYSTEM    = UTC
MEAN_ELEMENT_THEORY = SGP/SGP4

EPOCH          = 2026-02-26T13:20:01.102848
MEAN_MOTION    = 14.96678226
ECCENTRICITY   = .00214376
INCLINATION    = 87.3876
RA_OF_ASC_NODE = 170.0880
ARG_OF_PERICENTER = 185.9080
MEAN_ANOMALY   = 174.1902

EPHEMERIS_TYPE = 0
CLASSIFICATION_TYPE = U
NORAD_CAT_ID   = 54149
ELEMENT_SET_NO = 999
REV_AT_EPOCH   = 18226
BSTAR          = .27169607E-3
MEAN_MOTION_DOT = .3141E-4
MEAN_MOTION_DDOT = 0

CCSDS_OMM_VERS = 2.0
CREATION_DATE  = 
ORIGINATOR     = 

OBJECT_NAME    = XRISM
OBJECT_ID      = 2023-137A
CENTER_NAME    = EARTH
REF_FRAME      = TEME
TIME_SYSTEM    = UTC
MEAN_ELEMENT_THEORY = SGP/SGP4

EPOCH          = 2026-02-26T06:45:31.884192
MEAN_MOTION    = 15.11341037
ECCENTRICITY   = .00082753
INCLINATION    = 31.0035
RA_OF_ASC_NODE = 357.4413
ARG_OF_PERICENTER = 284.7335
MEAN_ANOMALY   = 75.2387

EPHEMERIS_TYPE = 0
CLASSIFICATION_TYPE = U
NORAD_CAT_ID   = 57800
ELEMENT_SET_NO = 999
REV_AT_EPOCH   = 13606
BSTAR          = .35184247E-3
MEAN_MOTION_DOT = .6181E-4
MEAN_MOTION_DDOT = 0

CCSDS_OMM_VERS = 2.0
CREATION_DATE  = 
ORIGINATOR     = 

OBJECT_NAME    = ACS3
OBJECT_ID      = 2024-077B
CENTER_NAME    = EARTH
REF_FRAME      = TEME
TIME_SYSTEM    = UTC
MEAN_ELEMENT_THEORY = SGP/SGP4

EPOCH          = 2026-02-26T09:46:10.291584
MEAN_MOTION    = 13.89059289
ECCENTRICITY   = .00522373
INCLINATION    = 97.2123
RA_OF_ASC_NODE = 1.0560
ARG_OF_PERICENTER = 108.1252
MEAN_ANOMALY   = 252.5610

EPHEMERIS_TYPE = 0
CLASSIFICATION_TYPE = U
NORAD_CAT_ID   = 59588
ELEMENT_SET_NO = 999
REV_AT_EPOCH   = 9263
BSTAR          = .1482294E-1
MEAN_MOTION_DOT = .18185E-3
MEAN_MOTION_DDOT = 0

